{"type":"FeatureCollection","features":[{"type":"Feature","id":"_mview_agences_etablissements_agences.fid--4ffae836_1a09556913f_-3044","geometry":{"type":"Point","coordinates":[0.97707333,8.56067667]},"geometry_name":"geometry","properties":{"region_nom_bdd":"Centrale","prefecture_nom_bdd":"Sotouboua","commune_nom_bdd":"Sotouboua 1","canton_nom_bdd":"Sotouboua","nom_localite":"Sotouboua","etab_nom":"Agence Moov Sotouboua","etab_adresse":"Agence Moov Sotouboua, Sotouboua","etab_jour":"{Lundi,Mardi,Mercredi,jeudi,Vendredi,Samedi}","etab_creation_date":"Nsp","activite_statut":"{Utilise}","activite_categorie":"Agence Moov","toilette_type":"{WCs,Latrines a eau}"}},{"type":"Feature","id":"_mview_agences_etablissements_agences.fid--4ffae836_1a09556913f_-3043","geometry":{"type":"Point","coordinates":[1.13880475,8.98958621]},"geometry_name":"geometry","properties":{"region_nom_bdd":"Centrale","prefecture_nom_bdd":"Tchaoudjo","commune_nom_bdd":"Tchaoudjo 1","canton_nom_bdd":"Sokodè (Komah)","nom_localite":"Kossobio","etab_nom":"Agence Moov Sokode","etab_adresse":"Agence Moov Sokode, Kossobio, 400BP7010/C Direction","etab_jour":"{Lundi,Mardi,Mercredi,jeudi,Vendredi,Samedi}","etab_creation_date":"2011","activite_statut":"{Utilise}","activite_categorie":"Agence Moov","toilette_type":"{WCs,Douches}"}},{"type":"Feature","id":"_mview_agences_etablissements_agences.fid--4ffae836_1a09556913f_-3042","geometry":{"type":"Point","coordinates":[1.00839304,8.33918172]},"geometry_name":"geometry","properties":{"region_nom_bdd":"Centrale","prefecture_nom_bdd":"Blitta","commune_nom_bdd":"Blitta 1","canton_nom_bdd":"Blitta-Village","nom_localite":"Blitta Sous L'antenne ","etab_nom":"Agence Moov Blitta Sous L'Antenne ","etab_adresse":"Agence Moov Blitta Sous L'Antenne , Blitta Sous L'Antenne ","etab_jour":"{Lundi,Mardi,Mercredi,jeudi,Vendredi,Samedi}","etab_creation_date":"2018","activite_statut":"{Utilise}","activite_categorie":"Agence Moov","toilette_type":"Nsp"}},{"type":"Feature","id":"_mview_agences_etablissements_agences.fid--4ffae836_1a09556913f_-3041","geometry":{"type":"Point","coordinates":[1.20933394,6.22172192]},"geometry_name":"geometry","properties":{"region_nom_bdd":"Maritime","prefecture_nom_bdd":"Agoè-Nyivé","commune_nom_bdd":"Agoè-Nyivé 1","canton_nom_bdd":"Agoè-Nyivé","nom_localite":"Agoe","etab_nom":"Moov Store Agoe","etab_adresse":"Moov Store Agoe, Agoe","etab_jour":"{Lundi,Mardi,Mercredi,jeudi,Vendredi,Samedi}","etab_creation_date":"Nsp","activite_statut":"{Utilise}","activite_categorie":"Agence Moov","toilette_type":"{Latrines a eau}"}},{"type":"Feature","id":"_mview_agences_etablissements_agences.fid--4ffae836_1a09556913f_-3040","geometry":{"type":"Point","coordinates":[1.33799333,6.16740167]},"geometry_name":"geometry","properties":{"region_nom_bdd":"Maritime","prefecture_nom_bdd":"Golfe","commune_nom_bdd":"Golfe 6","canton_nom_bdd":"Baguida","nom_localite":"Baguida","etab_nom":"Moov Store Baguida","etab_adresse":"Moov Store Baguida, Baguida","etab_jour":"{Lundi,Mardi,Mercredi,jeudi,Vendredi,Samedi}","etab_creation_date":"Nsp","activite_statut":"{Utilise}","activite_categorie":"Agence Moov","toilette_type":"{Latrines a eau}"}},{"type":"Feature","id":"_mview_agences_etablissements_agences.fid--4ffae836_1a09556913f_-303f","geometry":{"type":"Point","coordinates":[1.13712,6.19368]},"geometry_name":"geometry","properties":{"region_nom_bdd":"Maritime","prefecture_nom_bdd":"Golfe","commune_nom_bdd":"Golfe 7","canton_nom_bdd":"Aflao-Sagbado","nom_localite":"Sagbado","etab_nom":"Agence Moov Sagbado","etab_adresse":"Agence Moov Sagbado, Sagbado","etab_jour":"{Lundi,Mardi,Mercredi,jeudi,Vendredi,Samedi}","etab_creation_date":"2018","activite_statut":"{Utilise}","activite_categorie":"Agence Moov","toilette_type":"{WCs}"}},{"type":"Feature","id":"_mview_agences_etablissements_agences.fid--4ffae836_1a09556913f_-303e","geometry":{"type":"Point","coordinates":[1.17457421,6.21350994]},"geometry_name":"geometry","properties":{"region_nom_bdd":"Maritime","prefecture_nom_bdd":"Agoè-Nyivé","commune_nom_bdd":"Agoè-Nyivé 3","canton_nom_bdd":"Vakpossito","nom_localite":"Telessou ","etab_nom":"Agence Moov Store Telessou","etab_adresse":"Agence Moov Store Telessou, Telessou ","etab_jour":"{Lundi,Mardi,Mercredi,jeudi,Vendredi}","etab_creation_date":"Nsp ","activite_statut":"Nsp","activite_categorie":"Agence Moov","toilette_type":"Nsp"}},{"type":"Feature","id":"_mview_agences_etablissements_agences.fid--4ffae836_1a09556913f_-303d","geometry":{"type":"Point","coordinates":[1.18830084,6.19921422]},"geometry_name":"geometry","properties":{"region_nom_bdd":"Maritime","prefecture_nom_bdd":"Golfe","commune_nom_bdd":"Golfe 5","canton_nom_bdd":"Aflao-Gakli","nom_localite":"Adidoadin","etab_nom":"Agence Moov Adidoadin","etab_adresse":"Agence Moov Adidoadin, Adidoadin","etab_jour":"{Lundi,Mardi,Mercredi,jeudi,Vendredi,Samedi}","etab_creation_date":"Nsp","activite_statut":"Nsp","activite_categorie":"Agence Moov","toilette_type":"Nsp"}},{"type":"Feature","id":"_mview_agences_etablissements_agences.fid--4ffae836_1a09556913f_-303c","geometry":{"type":"Point","coordinates":[1.23446142,6.17021628]},"geometry_name":"geometry","properties":{"region_nom_bdd":"Maritime","prefecture_nom_bdd":"Golfe","commune_nom_bdd":"Golfe 3","canton_nom_bdd":"Bè-Ouest","nom_localite":"Nukafu","etab_nom":"Agence Moov Nukafu","etab_adresse":"Agence Moov Nukafu, Nukafu","etab_jour":"{Lundi,Mardi,Mercredi,jeudi,Vendredi,Samedi}","etab_creation_date":"2017","activite_statut":"{Utilise}","activite_categorie":"Agence Moov","toilette_type":"{WCs,Douches}"}},{"type":"Feature","id":"_mview_agences_etablissements_agences.fid--4ffae836_1a09556913f_-303b","geometry":{"type":"Point","coordinates":[1.25528333,6.15766333]},"geometry_name":"geometry","properties":{"region_nom_bdd":"Maritime","prefecture_nom_bdd":"Golfe","commune_nom_bdd":"Golfe 1","canton_nom_bdd":"Bè-Est","nom_localite":"Kpota","etab_nom":"Agence Moov Be Kpota","etab_adresse":"Agence Moov Be Kpota, Kpota","etab_jour":"{Lundi,Mardi,Mercredi,jeudi,Vendredi,Samedi}","etab_creation_date":"2017","activite_statut":"{Utilise}","activite_categorie":"Agence Moov","toilette_type":"{WCs,Douches}"}},{"type":"Feature","id":"_mview_agences_etablissements_agences.fid--4ffae836_1a09556913f_-303a","geometry":{"type":"Point","coordinates":[1.24004,6.13049333]},"geometry_name":"geometry","properties":{"region_nom_bdd":"Maritime","prefecture_nom_bdd":"Golfe","commune_nom_bdd":"Golfe 1","canton_nom_bdd":"Bè-Est","nom_localite":"Ocam","etab_nom":"Agence Moov Ocam","etab_adresse":"Agence Moov Ocam, Ocam, BP14511 Lomé ","etab_jour":"{Lundi,Mardi,Mercredi,jeudi,Vendredi,Samedi}","etab_creation_date":"Nsp","activite_statut":"{Utilise}","activite_categorie":"Agence Moov","toilette_type":"{WCs,Douches}"}},{"type":"Feature","id":"_mview_agences_etablissements_agences.fid--4ffae836_1a09556913f_-3039","geometry":{"type":"Point","coordinates":[1.21952664,6.13579065]},"geometry_name":"geometry","properties":{"region_nom_bdd":"Maritime","prefecture_nom_bdd":"Golfe","commune_nom_bdd":"Golfe 4","canton_nom_bdd":"Amoutivé","nom_localite":"Hanoukope","etab_nom":"Agence Moov Hanoukope","etab_adresse":"Agence Moov Hanoukope, Hanoukope","etab_jour":"{Lundi,Mardi,Mercredi,jeudi,Vendredi,Samedi}","etab_creation_date":"2013","activite_statut":"{Utilise}","activite_categorie":"Agence Moov","toilette_type":"{WCs,Douches}"}},{"type":"Feature","id":"_mview_agences_etablissements_agences.fid--4ffae836_1a09556913f_-3038","geometry":{"type":"Point","coordinates":[1.28480167,6.15993]},"geometry_name":"geometry","properties":{"region_nom_bdd":"Maritime","prefecture_nom_bdd":"Golfe","commune_nom_bdd":"Golfe 1","canton_nom_bdd":"Bè-Est","nom_localite":"Adakpame","etab_nom":"Agence Moov Teddycom Adakpame","etab_adresse":"Agence Moov Teddycom Adakpame, Adakpame, 21BP182","etab_jour":"{Lundi,Mardi,Mercredi,jeudi,Vendredi}","etab_creation_date":"2019","activite_statut":"{Utilise}","activite_categorie":"Agence Moov","toilette_type":"{WCs}"}},{"type":"Feature","id":"_mview_agences_etablissements_agences.fid--4ffae836_1a09556913f_-3037","geometry":{"type":"Point","coordinates":[1.25374409,6.14953518]},"geometry_name":"geometry","properties":{"region_nom_bdd":"Maritime","prefecture_nom_bdd":"Golfe","commune_nom_bdd":"Golfe 1","canton_nom_bdd":"Bè-Est","nom_localite":"Akodessewa","etab_nom":"Agence Moov Akodessewa","etab_adresse":"Agence Moov Akodessewa, Akodessewa","etab_jour":"{Lundi,Mardi,Mercredi,Vendredi,jeudi,Samedi}","etab_creation_date":"Nsp","activite_statut":"{Utilise}","activite_categorie":"Agence Moov","toilette_type":"Nsp"}},{"type":"Feature","id":"_mview_agences_etablissements_agences.fid--4ffae836_1a09556913f_-3036","geometry":{"type":"Point","coordinates":[1.16661333,6.185315]},"geometry_name":"geometry","properties":{"region_nom_bdd":"Maritime","prefecture_nom_bdd":"Golfe","commune_nom_bdd":"Golfe 5","canton_nom_bdd":"Aflao-Gakli","nom_localite":"Adjidogome","etab_nom":"Agence Moov Adidogome","etab_adresse":"Agence Moov Adidogome, Adjidogome, BP14511 Lomé ","etab_jour":"{Lundi,Mardi,Mercredi,jeudi,Vendredi,Samedi}","etab_creation_date":"2018","activite_statut":"{Utilise}","activite_categorie":"Agence Moov","toilette_type":"{WCs,Douches}"}},{"type":"Feature","id":"_mview_agences_etablissements_agences.fid--4ffae836_1a09556913f_-3035","geometry":{"type":"Point","coordinates":[1.24079559,6.15218341]},"geometry_name":"geometry","properties":{"region_nom_bdd":"Maritime","prefecture_nom_bdd":"Golfe","commune_nom_bdd":"Golfe 1","canton_nom_bdd":"Bè-Est","nom_localite":"Privilège ","etab_nom":"Agence Moov Privilège","etab_adresse":"Agence Moov Privilège, Privilège ","etab_jour":"{Lundi,Mardi,Mercredi,jeudi,Vendredi,Samedi}","etab_creation_date":"Nsp","activite_statut":"{Utilise}","activite_categorie":"Agence Moov","toilette_type":"Nsp"}},{"type":"Feature","id":"_mview_agences_etablissements_agences.fid--4ffae836_1a09556913f_-3034","geometry":{"type":"Point","coordinates":[1.20915167,6.41093667]},"geometry_name":"geometry","properties":{"region_nom_bdd":"Maritime","prefecture_nom_bdd":"Zio","commune_nom_bdd":"Zio 1","canton_nom_bdd":"Tsévié","nom_localite":"Daviemondji","etab_nom":"Moov Store Tsevie","etab_adresse":"Moov Store Tsevie, Daviemondji","etab_jour":"{Lundi,Mardi,Mercredi,jeudi,Vendredi}","etab_creation_date":"2020","activite_statut":"{Utilise}","activite_categorie":"Agence Moov","toilette_type":"{WCs}"}},{"type":"Feature","id":"_mview_agences_etablissements_agences.fid--4ffae836_1a09556913f_-3033","geometry":{"type":"Point","coordinates":[1.25301801,6.17039081]},"geometry_name":"geometry","properties":{"region_nom_bdd":"Maritime","prefecture_nom_bdd":"Golfe","commune_nom_bdd":"Golfe 2","canton_nom_bdd":"Bè-Centre","nom_localite":"Aeroport Lome","etab_nom":"Agence Moov Aeroport Lome","etab_adresse":"Agence Moov Aeroport Lome, Aeroport Lome","etab_jour":"{Lundi,Mardi,Mercredi,jeudi,Samedi,Dimanche,Vendredi}","etab_creation_date":"2017","activite_statut":"{Utilise}","activite_categorie":"Agence Moov","toilette_type":"Nsp"}},{"type":"Feature","id":"_mview_agences_etablissements_agences.fid--4ffae836_1a09556913f_-3032","geometry":{"type":"Point","coordinates":[1.18844167,9.54685167]},"geometry_name":"geometry","properties":{"region_nom_bdd":"Kara","prefecture_nom_bdd":"Kozah","commune_nom_bdd":"Kozah 1","canton_nom_bdd":"Commune De Kara","nom_localite":"Batassoukome","etab_nom":"Agence Moov Kara","etab_adresse":"Agence Moov Kara, Batassoukome","etab_jour":"{Mardi,Lundi,Mercredi,jeudi,Vendredi,Samedi}","etab_creation_date":"2007","activite_statut":"{Utilise}","activite_categorie":"Agence Moov","toilette_type":"{WCs,Douches}"}},{"type":"Feature","id":"_mview_agences_etablissements_agences.fid--4ffae836_1a09556913f_-3031","geometry":{"type":"Point","coordinates":[0.781485,9.26236833]},"geometry_name":"geometry","properties":{"region_nom_bdd":"Kara","prefecture_nom_bdd":"Bassar","commune_nom_bdd":"Bassar 1","canton_nom_bdd":"Bassar","nom_localite":"Bassar","etab_nom":"Agence Moov Bassar","etab_adresse":"Agence Moov Bassar, Bassar","etab_jour":"{Lundi,Mardi,Mercredi,jeudi,Vendredi,Samedi}","etab_creation_date":"Nsp","activite_statut":"{Utilise}","activite_categorie":"Agence Moov","toilette_type":"{Latrines a eau}"}},{"type":"Feature","id":"_mview_agences_etablissements_agences.fid--4ffae836_1a09556913f_-3030","geometry":{"type":"Point","coordinates":[1.28271564,6.25371722]},"geometry_name":"geometry","properties":{"region_nom_bdd":"Maritime","prefecture_nom_bdd":"Zio","commune_nom_bdd":"Zio 1","canton_nom_bdd":"Djagblé","nom_localite":"Djagble Centre","etab_nom":"Moov Store Djagble Centre","etab_adresse":"Moov Store Djagble Centre, Djagble Centre","etab_jour":"{Lundi,Mardi,Mercredi,jeudi,Vendredi,Samedi}","etab_creation_date":"2020","activite_statut":"{Utilise}","activite_categorie":"Agence Moov","toilette_type":"{WCs}"}},{"type":"Feature","id":"_mview_agences_etablissements_agences.fid--4ffae836_1a09556913f_-302f","geometry":{"type":"Point","coordinates":[0.91539152,6.44807948]},"geometry_name":"geometry","properties":{"region_nom_bdd":"Maritime","prefecture_nom_bdd":"Avé","commune_nom_bdd":"Avé 1","canton_nom_bdd":"Assahoun","nom_localite":"Kpetoume ","etab_nom":"Agence Moov Kpetoume ","etab_adresse":"Agence Moov Kpetoume , Kpetoume ","etab_jour":"{Lundi,Mardi,jeudi,Mercredi,Vendredi,Samedi}","etab_creation_date":"Nsp ","activite_statut":"{Utilise}","activite_categorie":"Agence Moov","toilette_type":"{WCs}"}},{"type":"Feature","id":"_mview_agences_etablissements_agences.fid--4ffae836_1a09556913f_-302e","geometry":{"type":"Point","coordinates":[0.63232383,6.91243753]},"geometry_name":"geometry","properties":{"region_nom_bdd":"Plateaux","prefecture_nom_bdd":"Kloto","commune_nom_bdd":"Kloto 1","canton_nom_bdd":"Agome-Kpalime","nom_localite":"Atakpame Kondji","etab_nom":"Agence Moov Atakpame Kondji","etab_adresse":"Agence Moov Atakpame Kondji, Atakpame Kondji","etab_jour":"{Lundi,Mardi,Mercredi,jeudi,Vendredi,Samedi}","etab_creation_date":"2012","activite_statut":"{Utilise}","activite_categorie":"Agence Moov","toilette_type":"{WCs,Douches}"}},{"type":"Feature","id":"_mview_agences_etablissements_agences.fid--4ffae836_1a09556913f_-302d","geometry":{"type":"Point","coordinates":[0.73126333,7.13203833]},"geometry_name":"geometry","properties":{"region_nom_bdd":"Plateaux","prefecture_nom_bdd":"Kpélé","commune_nom_bdd":"Kpélé 1","canton_nom_bdd":"Kpélé-Novivé","nom_localite":"Kpele Adeta ","etab_nom":"Moov Store de Kpele Adeta","etab_adresse":"Moov Store de Kpele Adeta, Kpele Adeta ","etab_jour":"{Lundi,Mardi,Mercredi,jeudi,Vendredi,Samedi}","etab_creation_date":"2021","activite_statut":"{Utilise}","activite_categorie":"Agence Moov","toilette_type":"{Latrines a eau,Douches}"}},{"type":"Feature","id":"_mview_agences_etablissements_agences.fid--4ffae836_1a09556913f_-302c","geometry":{"type":"Point","coordinates":[1.19344,7.75978167]},"geometry_name":"geometry","properties":{"region_nom_bdd":"Plateaux","prefecture_nom_bdd":"Anié","commune_nom_bdd":"Anié 1","canton_nom_bdd":"Anié","nom_localite":"Anie","etab_nom":"Agence Moov Anie","etab_adresse":"Agence Moov Anie, Anie","etab_jour":"{Lundi,Mardi,Mercredi,jeudi,Vendredi,Samedi}","etab_creation_date":"Nsp","activite_statut":"{Utilise}","activite_categorie":"Agence Moov","toilette_type":"{WCs,Douches}"}},{"type":"Feature","id":"_mview_agences_etablissements_agences.fid--4ffae836_1a09556913f_-302b","geometry":{"type":"Point","coordinates":[1.17106339,6.95337197]},"geometry_name":"geometry","properties":{"region_nom_bdd":"Plateaux","prefecture_nom_bdd":"Haho","commune_nom_bdd":"Haho 1","canton_nom_bdd":"Notsé","nom_localite":"Tegbe","etab_nom":"Agence Moov Notse","etab_adresse":"Agence Moov Notse, Tegbe","etab_jour":"{Lundi,Mardi,Mercredi,jeudi,Vendredi,Samedi}","etab_creation_date":"2011","activite_statut":"{Utilise}","activite_categorie":"Agence Moov","toilette_type":"{WCs}"}},{"type":"Feature","id":"_mview_agences_etablissements_agences.fid--4ffae836_1a09556913f_-302a","geometry":{"type":"Point","coordinates":[0.20288333,10.87609167]},"geometry_name":"geometry","properties":{"region_nom_bdd":"Savanes","prefecture_nom_bdd":"Tône","commune_nom_bdd":"Tône 1","canton_nom_bdd":"Dapaong","nom_localite":"Dapaong, Quartier Natebagou","etab_nom":"Franchise Moov Dapaong","etab_adresse":"Franchise Moov Dapaong, Dapaong, Quartier Natebagou","etab_jour":"{Lundi,Mardi,Mercredi,jeudi,Vendredi,Samedi}","etab_creation_date":"2011","activite_statut":"{Utilise}","activite_categorie":"Agence Moov","toilette_type":"{WCs}"}},{"type":"Feature","id":"_mview_agences_etablissements_agences.fid--4ffae836_1a09556913f_-3029","geometry":{"type":"Point","coordinates":[0.020775,11.09722833]},"geometry_name":"geometry","properties":{"region_nom_bdd":"Savanes","prefecture_nom_bdd":"Cinkassé","commune_nom_bdd":"Cinkassé 1","canton_nom_bdd":"Cinkassé","nom_localite":"Cinkanssé ","etab_nom":"Franchise Moov Cinkanssé","etab_adresse":"Franchise Moov Cinkanssé, Cinkanssé ","etab_jour":"{Lundi,Mardi,Mercredi,jeudi,Vendredi,Samedi}","etab_creation_date":"2011","activite_statut":"{Utilise}","activite_categorie":"Agence Moov","toilette_type":"{WCs}"}}],"totalFeatures":28,"numberMatched":28,"numberReturned":28,"timeStamp":"2026-09-14T01:14:23.963Z","crs":{"type":"name","properties":{"name":"urn:ogc:def:crs:EPSG::4326"}}}