{"type":"FeatureCollection","features":[{"type":"Feature","id":"_mview_agences_etablissements_agences.fid--4ffae836_1a09556913f_-3025","geometry":{"type":"Point","coordinates":[0.98573438,8.56157105]},"geometry_name":"geometry","properties":{"region_nom_bdd":"Centrale","prefecture_nom_bdd":"Sotouboua","commune_nom_bdd":"Sotouboua 1","canton_nom_bdd":"Sotouboua","nom_localite":"Laowe","etab_nom":"Agence Togocom Sotouboua","etab_adresse":"Agence Togocom Sotouboua, Laowe","etab_jour":"Néant","etab_creation_date":"Nsp","activite_statut":"Nsp","activite_categorie":"Agence Togocom","toilette_type":"Nsp"}},{"type":"Feature","id":"_mview_agences_etablissements_agences.fid--4ffae836_1a09556913f_-3024","geometry":{"type":"Point","coordinates":[1.221865,6.13046833]},"geometry_name":"geometry","properties":{"region_nom_bdd":"Maritime","prefecture_nom_bdd":"Golfe","commune_nom_bdd":"Golfe 4","canton_nom_bdd":"Amoutivé","nom_localite":"Assivito","etab_nom":"Agence Togocom Assivito","etab_adresse":"Agence Togocom Assivito, Assivito","etab_jour":"{Lundi,Mardi,Mercredi,jeudi,Vendredi,Samedi}","etab_creation_date":"2022","activite_statut":"{Utilise}","activite_categorie":"Agence Togocom","toilette_type":"Nsp"}},{"type":"Feature","id":"_mview_agences_etablissements_agences.fid--4ffae836_1a09556913f_-3023","geometry":{"type":"Point","coordinates":[1.14046726,8.98419874]},"geometry_name":"geometry","properties":{"region_nom_bdd":"Centrale","prefecture_nom_bdd":"Tchaoudjo","commune_nom_bdd":"Tchaoudjo 1","canton_nom_bdd":"Sokodè (Komah)","nom_localite":"Zongo","etab_nom":"Boutique Togocom Tchakala","etab_adresse":"Boutique Togocom Tchakala, Zongo, BP244 Sokodé","etab_jour":"{Lundi,Mardi,Mercredi,jeudi,Vendredi,Samedi}","etab_creation_date":"2014","activite_statut":"{Utilise}","activite_categorie":"Agence Togocom","toilette_type":"{Douches}"}},{"type":"Feature","id":"_mview_agences_etablissements_agences.fid--4ffae836_1a09556913f_-3022","geometry":{"type":"Point","coordinates":[1.13642255,8.99577517]},"geometry_name":"geometry","properties":{"region_nom_bdd":"Centrale","prefecture_nom_bdd":"Tchaoudjo","commune_nom_bdd":"Tchaoudjo 1","canton_nom_bdd":"Sokodè (Komah)","nom_localite":"Barriere","etab_nom":"Agence Togocom Sokode","etab_adresse":"Agence Togocom Sokode, Barriere, BP333","etab_jour":"{Lundi,Mardi,Mercredi,jeudi,Vendredi,Samedi}","etab_creation_date":"2007","activite_statut":"{Utilise}","activite_categorie":"Agence Togocom","toilette_type":"{WCs,Douches}"}},{"type":"Feature","id":"_mview_agences_etablissements_agences.fid--4ffae836_1a09556913f_-3021","geometry":{"type":"Point","coordinates":[1.14976746,8.96971181]},"geometry_name":"geometry","properties":{"region_nom_bdd":"Centrale","prefecture_nom_bdd":"Tchaoudjo","commune_nom_bdd":"Tchaoudjo 1","canton_nom_bdd":"Sokodè (Komah)","nom_localite":"Komah ","etab_nom":"Agence Togocom Franchise Koma","etab_adresse":"Agence Togocom Franchise Koma, Komah ","etab_jour":"{Lundi,Mardi,Mercredi,jeudi,Vendredi,Samedi}","etab_creation_date":"2019","activite_statut":"{Utilise}","activite_categorie":"Agence Togocom","toilette_type":"{WCs,Douches}"}},{"type":"Feature","id":"_mview_agences_etablissements_agences.fid--4ffae836_1a09556913f_-3020","geometry":{"type":"Point","coordinates":[1.41543333,9.02193833]},"geometry_name":"geometry","properties":{"region_nom_bdd":"Centrale","prefecture_nom_bdd":"Tchamba","commune_nom_bdd":"Tchamba 1","canton_nom_bdd":"Tchamba","nom_localite":"Iyiwa","etab_nom":"Agence Togocom Tchamba","etab_adresse":"Agence Togocom Tchamba, Iyiwa, Quartier Atchanve, place de la réconciliation,BP333 Lomé ","etab_jour":"{Lundi,Mardi,Mercredi,jeudi,Vendredi,Samedi}","etab_creation_date":"2013","activite_statut":"{Utilise}","activite_categorie":"Agence Togocom","toilette_type":"{WCs,Latrines a eau}"}},{"type":"Feature","id":"_mview_agences_etablissements_agences.fid--4ffae836_1a09556913f_-301f","geometry":{"type":"Point","coordinates":[1.59300667,8.74632]},"geometry_name":"geometry","properties":{"region_nom_bdd":"Centrale","prefecture_nom_bdd":"Tchamba","commune_nom_bdd":"Tchamba 3","canton_nom_bdd":"Kaboli","nom_localite":"Kaboli","etab_nom":"Franchise Togocom Kaboli","etab_adresse":"Franchise Togocom Kaboli, Kaboli","etab_jour":"{Lundi,Mardi,Mercredi,jeudi,Vendredi,Samedi}","etab_creation_date":"2019","activite_statut":"{Utilise}","activite_categorie":"Agence Togocom","toilette_type":"Nsp"}},{"type":"Feature","id":"_mview_agences_etablissements_agences.fid--4ffae836_1a09556913f_-301e","geometry":{"type":"Point","coordinates":[0.97481364,8.56147248]},"geometry_name":"geometry","properties":{"region_nom_bdd":"Centrale","prefecture_nom_bdd":"Sotouboua","commune_nom_bdd":"Sotouboua 1","canton_nom_bdd":"Sotouboua","nom_localite":"Sotouboua","etab_nom":"Agence Togocom Sotouboua","etab_adresse":"Agence Togocom Sotouboua, Sotouboua, ","etab_jour":"{Lundi,Mardi,Mercredi,jeudi,Vendredi,Samedi,Dimanche}","etab_creation_date":"2012","activite_statut":"{Utilise}","activite_categorie":"Agence Togocom","toilette_type":"Nsp"}},{"type":"Feature","id":"_mview_agences_etablissements_agences.fid--4ffae836_1a09556913f_-301d","geometry":{"type":"Point","coordinates":[1.01027787,8.34317751]},"geometry_name":"geometry","properties":{"region_nom_bdd":"Centrale","prefecture_nom_bdd":"Blitta","commune_nom_bdd":"Blitta 1","canton_nom_bdd":"Blitta-Village","nom_localite":"Blitta Village","etab_nom":"Agence Togocom Blitta","etab_adresse":"Agence Togocom Blitta, Blitta Village","etab_jour":"{Lundi,Mardi,Mercredi,jeudi,Vendredi,Samedi}","etab_creation_date":"2018","activite_statut":"{Utilise}","activite_categorie":"Agence Togocom","toilette_type":"{Latrines a eau,Douches}"}},{"type":"Feature","id":"_mview_agences_etablissements_agences.fid--4ffae836_1a09556913f_-301c","geometry":{"type":"Point","coordinates":[1.34251333,6.168715]},"geometry_name":"geometry","properties":{"region_nom_bdd":"Maritime","prefecture_nom_bdd":"Golfe","commune_nom_bdd":"Golfe 6","canton_nom_bdd":"Baguida","nom_localite":"Baguida","etab_nom":"Agence Togocom Baguida","etab_adresse":"Agence Togocom Baguida, Baguida","etab_jour":"{Lundi,Mardi,Mercredi,jeudi,Vendredi,Samedi}","etab_creation_date":"2001","activite_statut":"{Utilise}","activite_categorie":"Agence Togocom","toilette_type":"{WCs}"}},{"type":"Feature","id":"_mview_agences_etablissements_agences.fid--4ffae836_1a09556913f_-301b","geometry":{"type":"Point","coordinates":[1.21090007,6.23107799]},"geometry_name":"geometry","properties":{"region_nom_bdd":"Maritime","prefecture_nom_bdd":"Agoè-Nyivé","commune_nom_bdd":"Agoè-Nyivé 1","canton_nom_bdd":"Agoè-Nyivé","nom_localite":"Agoe Leader Price","etab_nom":"Agence Togocom Agoe","etab_adresse":"Agence Togocom Agoe, Agoe Leader Price","etab_jour":"{Lundi,Mardi,Mercredi,jeudi,Vendredi,Samedi}","etab_creation_date":"Nsp","activite_statut":"{Utilise}","activite_categorie":"Agence Togocom","toilette_type":"{Latrines a eau}"}},{"type":"Feature","id":"_mview_agences_etablissements_agences.fid--4ffae836_1a09556913f_-301a","geometry":{"type":"Point","coordinates":[1.19906661,6.23062724]},"geometry_name":"geometry","properties":{"region_nom_bdd":"Maritime","prefecture_nom_bdd":"Agoè-Nyivé","commune_nom_bdd":"Agoè-Nyivé 1","canton_nom_bdd":"Agoè-Nyivé","nom_localite":"Agoe Assiyeye","etab_nom":"Franchise Togocom Agoe Assiyeye","etab_adresse":"Franchise Togocom Agoe Assiyeye, Agoe Assiyeye, LIBRAIRIE BON PASTEUR","etab_jour":"{Lundi,Mardi,Mercredi,jeudi,Vendredi,Samedi}","etab_creation_date":"Nsp","activite_statut":"{Utilise}","activite_categorie":"Agence Togocom","toilette_type":"{WCs}"}},{"type":"Feature","id":"_mview_agences_etablissements_agences.fid--4ffae836_1a09556913f_-3019","geometry":{"type":"Point","coordinates":[1.20618662,6.22099001]},"geometry_name":"geometry","properties":{"region_nom_bdd":"Maritime","prefecture_nom_bdd":"Agoè-Nyivé","commune_nom_bdd":"Agoè-Nyivé 1","canton_nom_bdd":"Agoè-Nyivé","nom_localite":"Agoe Nyiveme","etab_nom":"Franchise Togocom Agoe Nyiveme","etab_adresse":"Franchise Togocom Agoe Nyiveme, Agoe Nyiveme","etab_jour":"{Lundi,Mardi,Mercredi,jeudi,Vendredi,Samedi}","etab_creation_date":"2018","activite_statut":"{Utilise}","activite_categorie":"Agence Togocom","toilette_type":"{WCs,Douches}"}},{"type":"Feature","id":"_mview_agences_etablissements_agences.fid--4ffae836_1a09556913f_-3018","geometry":{"type":"Point","coordinates":[1.18712833,6.21647]},"geometry_name":"geometry","properties":{"region_nom_bdd":"Maritime","prefecture_nom_bdd":"Agoè-Nyivé","commune_nom_bdd":"Agoè-Nyivé 1","canton_nom_bdd":"Agoè-Nyivé","nom_localite":"Agoe Plateau","etab_nom":"Franchise Togocom Agoe Plateau","etab_adresse":"Franchise Togocom Agoe Plateau, Agoe Plateau","etab_jour":"{Lundi,Mardi,Mercredi,jeudi,Vendredi,Samedi}","etab_creation_date":"Nsp","activite_statut":"Nsp","activite_categorie":"Agence Togocom","toilette_type":"Nsp"}},{"type":"Feature","id":"_mview_agences_etablissements_agences.fid--4ffae836_1a09556913f_-3017","geometry":{"type":"Point","coordinates":[1.1666036,6.2111736]},"geometry_name":"geometry","properties":{"region_nom_bdd":"Maritime","prefecture_nom_bdd":"Agoè-Nyivé","commune_nom_bdd":"Agoè-Nyivé 3","canton_nom_bdd":"Vakpossito","nom_localite":"Elavagno Kleve","etab_nom":"Agence Togocom Elavagno Kleve","etab_adresse":"Agence Togocom Elavagno Kleve, Elavagno Kleve","etab_jour":"Néant","etab_creation_date":"Nsp","activite_statut":"Nsp","activite_categorie":"Agence Togocom","toilette_type":"Nsp"}},{"type":"Feature","id":"_mview_agences_etablissements_agences.fid--4ffae836_1a09556913f_-3016","geometry":{"type":"Point","coordinates":[1.18719833,6.24234333]},"geometry_name":"geometry","properties":{"region_nom_bdd":"Maritime","prefecture_nom_bdd":"Agoè-Nyivé","commune_nom_bdd":"Agoè-Nyivé 1","canton_nom_bdd":"Agoè-Nyivé","nom_localite":"Anokui","etab_nom":"Franchise Togocom Agoe Anokui","etab_adresse":"Franchise Togocom Agoe Anokui, Anokui","etab_jour":"{Lundi,Mardi,Mercredi,jeudi,Vendredi,Samedi}","etab_creation_date":"Nsp","activite_statut":"{Utilise}","activite_categorie":"Agence Togocom","toilette_type":"{WCs,Douches}"}},{"type":"Feature","id":"_mview_agences_etablissements_agences.fid--4ffae836_1a09556913f_-3015","geometry":{"type":"Point","coordinates":[1.14910642,6.23327608]},"geometry_name":"geometry","properties":{"region_nom_bdd":"Maritime","prefecture_nom_bdd":"Agoè-Nyivé","commune_nom_bdd":"Agoè-Nyivé 5","canton_nom_bdd":"Sanguera","nom_localite":"Zossime","etab_nom":"Agence Togocom Zossime","etab_adresse":"Agence Togocom Zossime, Zossime","etab_jour":"{Lundi,Mardi,Mercredi,jeudi,Vendredi,Samedi}","etab_creation_date":"2017","activite_statut":"{Utilise}","activite_categorie":"Agence Togocom","toilette_type":"{WCs}"}},{"type":"Feature","id":"_mview_agences_etablissements_agences.fid--4ffae836_1a09556913f_-3014","geometry":{"type":"Point","coordinates":[1.20802617,6.25758741]},"geometry_name":"geometry","properties":{"region_nom_bdd":"Maritime","prefecture_nom_bdd":"Agoè-Nyivé","commune_nom_bdd":"Agoè-Nyivé 4","canton_nom_bdd":"Togblekope","nom_localite":"Agoe Zongo","etab_nom":"Franchise Togocom Togblekope","etab_adresse":"Franchise Togocom Togblekope, Agoe Zongo","etab_jour":"{Mardi,Lundi,Mercredi,jeudi,Vendredi,Samedi}","etab_creation_date":"2010","activite_statut":"{Utilise}","activite_categorie":"Agence Togocom","toilette_type":"Nsp"}},{"type":"Feature","id":"_mview_agences_etablissements_agences.fid--4ffae836_1a09556913f_-3013","geometry":{"type":"Point","coordinates":[1.21775372,6.3173511]},"geometry_name":"geometry","properties":{"region_nom_bdd":"Maritime","prefecture_nom_bdd":"Agoè-Nyivé","commune_nom_bdd":"Agoè-Nyivé 6","canton_nom_bdd":"Adétikopé","nom_localite":"Adeticope Centre","etab_nom":"Franchise Togocom Adeticope","etab_adresse":"Franchise Togocom Adeticope, Adeticope Centre","etab_jour":"{Lundi,Mardi,Mercredi,jeudi,Vendredi,Samedi}","etab_creation_date":"2018","activite_statut":"{Utilise}","activite_categorie":"Agence Togocom","toilette_type":"{WCs}"}},{"type":"Feature","id":"_mview_agences_etablissements_agences.fid--4ffae836_1a09556913f_-3012","geometry":{"type":"Point","coordinates":[1.16858362,6.2413727]},"geometry_name":"geometry","properties":{"region_nom_bdd":"Maritime","prefecture_nom_bdd":"Agoè-Nyivé","commune_nom_bdd":"Agoè-Nyivé 1","canton_nom_bdd":"Agoè-Nyivé","nom_localite":"Logope ","etab_nom":"Franchise Togocom Bewise","etab_adresse":"Franchise Togocom Bewise, Logope , 07BP14544","etab_jour":"{Lundi,Mardi,Mercredi,jeudi,Vendredi,Samedi}","etab_creation_date":"2019","activite_statut":"{Utilise}","activite_categorie":"Agence Togocom","toilette_type":"{WCs}"}},{"type":"Feature","id":"_mview_agences_etablissements_agences.fid--4ffae836_1a09556913f_-3011","geometry":{"type":"Point","coordinates":[1.15499667,6.26694333]},"geometry_name":"geometry","properties":{"region_nom_bdd":"Maritime","prefecture_nom_bdd":"Agoè-Nyivé","commune_nom_bdd":"Agoè-Nyivé 2","canton_nom_bdd":"Légbassito","nom_localite":"Legbassito","etab_nom":"Franchise Togocom Legbassito","etab_adresse":"Franchise Togocom Legbassito, Legbassito","etab_jour":"{Lundi,Mardi,Mercredi,jeudi,Vendredi,Samedi}","etab_creation_date":"2018","activite_statut":"{Utilise}","activite_categorie":"Agence Togocom","toilette_type":"{WCs}"}},{"type":"Feature","id":"_mview_agences_etablissements_agences.fid--4ffae836_1a09556913f_-3010","geometry":{"type":"Point","coordinates":[1.17849303,6.1767194]},"geometry_name":"geometry","properties":{"region_nom_bdd":"Maritime","prefecture_nom_bdd":"Golfe","commune_nom_bdd":"Golfe 5","canton_nom_bdd":"Aflao-Gakli","nom_localite":"Adidogome","etab_nom":"Agence Togocom Adigome","etab_adresse":"Agence Togocom Adigome, Adidogome","etab_jour":"{Lundi,Mardi,Mercredi,jeudi,Vendredi,Samedi}","etab_creation_date":"Nsp","activite_statut":"{Utilise}","activite_categorie":"Agence Togocom","toilette_type":"{WCs}"}},{"type":"Feature","id":"_mview_agences_etablissements_agences.fid--4ffae836_1a09556913f_-300f","geometry":{"type":"Point","coordinates":[1.1398875,6.19359829]},"geometry_name":"geometry","properties":{"region_nom_bdd":"Maritime","prefecture_nom_bdd":"Golfe","commune_nom_bdd":"Golfe 7","canton_nom_bdd":"Aflao-Sagbado","nom_localite":"Sagbado","etab_nom":"Boutique Togocom Sagbado","etab_adresse":"Boutique Togocom Sagbado, Sagbado","etab_jour":"{Lundi,Mardi,Mercredi,jeudi,Vendredi,Samedi,Dimanche}","etab_creation_date":"2015","activite_statut":"{Utilise}","activite_categorie":"Agence Togocom","toilette_type":"{WCs}"}},{"type":"Feature","id":"_mview_agences_etablissements_agences.fid--4ffae836_1a09556913f_-300e","geometry":{"type":"Point","coordinates":[1.14961167,6.19941]},"geometry_name":"geometry","properties":{"region_nom_bdd":"Maritime","prefecture_nom_bdd":"Golfe","commune_nom_bdd":"Golfe 5","canton_nom_bdd":"Aflao-Gakli","nom_localite":"Adidogome Madiba","etab_nom":"Agence Togocom Madiba","etab_adresse":"Agence Togocom Madiba, Adidogome Madiba, 31BP13 Lomé","etab_jour":"{Lundi,Mardi,Mercredi,jeudi,Vendredi,Samedi}","etab_creation_date":"2019","activite_statut":"{Utilise}","activite_categorie":"Agence Togocom","toilette_type":"{WCs}"}},{"type":"Feature","id":"_mview_agences_etablissements_agences.fid--4ffae836_1a09556913f_-300d","geometry":{"type":"Point","coordinates":[1.19183,6.190435]},"geometry_name":"geometry","properties":{"region_nom_bdd":"Maritime","prefecture_nom_bdd":"Golfe","commune_nom_bdd":"Golfe 5","canton_nom_bdd":"Aflao-Gakli","nom_localite":"Totsi","etab_nom":"Agence Togocom Totsi","etab_adresse":"Agence Togocom Totsi, Totsi, BP333","etab_jour":"{Lundi,Mardi,Mercredi,jeudi,Vendredi,Samedi}","etab_creation_date":"2009","activite_statut":"{Utilise}","activite_categorie":"Agence Togocom","toilette_type":"{WCs,Douches}"}},{"type":"Feature","id":"_mview_agences_etablissements_agences.fid--4ffae836_1a09556913f_-300c","geometry":{"type":"Point","coordinates":[1.199753,6.16972778]},"geometry_name":"geometry","properties":{"region_nom_bdd":"Maritime","prefecture_nom_bdd":"Golfe","commune_nom_bdd":"Golfe 5","canton_nom_bdd":"Aflao-Gakli","nom_localite":"Aflao Gakli ","etab_nom":"Agence Togocom Aflao Gakli","etab_adresse":"Agence Togocom Aflao Gakll, Aflao Gakli , PB 330","etab_jour":"{Lundi,Mardi,Mercredi,jeudi,Vendredi,Samedi}","etab_creation_date":"2019","activite_statut":"{Utilise}","activite_categorie":"Agence Togocom","toilette_type":"{WCs,Latrines a eau}"}},{"type":"Feature","id":"_mview_agences_etablissements_agences.fid--4ffae836_1a09556913f_-300b","geometry":{"type":"Point","coordinates":[1.2344596,6.1644454]},"geometry_name":"geometry","properties":{"region_nom_bdd":"Maritime","prefecture_nom_bdd":"Golfe","commune_nom_bdd":"Golfe 3","canton_nom_bdd":"Bè-Ouest","nom_localite":"Nukafu","etab_nom":"Agence Togocom Nukafu","etab_adresse":"Agence Togocom Nukafu, Nukafu","etab_jour":"{Lundi,Mardi,Mercredi,jeudi,Vendredi,Samedi}","etab_creation_date":"Nsp ","activite_statut":"{Utilise}","activite_categorie":"Agence Togocom","toilette_type":"{WCs,Douches}"}},{"type":"Feature","id":"_mview_agences_etablissements_agences.fid--4ffae836_1a09556913f_-300a","geometry":{"type":"Point","coordinates":[1.21462167,6.12941667]},"geometry_name":"geometry","properties":{"region_nom_bdd":"Maritime","prefecture_nom_bdd":"Golfe","commune_nom_bdd":"Golfe 4","canton_nom_bdd":"Amoutivé","nom_localite":"Nyekonakpoe","etab_nom":"Agence Togocom Place de L'Indépendance","etab_adresse":"Agence Togocom Place de L'Indépendance, Nyekonakpoe","etab_jour":"{Lundi,Mardi,Mercredi,jeudi,Vendredi,Samedi}","etab_creation_date":"2013","activite_statut":"{Utilise}","activite_categorie":"Agence Togocom","toilette_type":"Nsp"}},{"type":"Feature","id":"_mview_agences_etablissements_agences.fid--4ffae836_1a09556913f_-3009","geometry":{"type":"Point","coordinates":[1.11072667,6.23209]},"geometry_name":"geometry","properties":{"region_nom_bdd":"Maritime","prefecture_nom_bdd":"Agoè-Nyivé","commune_nom_bdd":"Agoè-Nyivé 5","canton_nom_bdd":"Sanguera","nom_localite":"Sanguera","etab_nom":"Franchise Togocom Sanguera","etab_adresse":"Franchise Togocom Sanguera, Sanguera","etab_jour":"{Lundi,Mardi,Mercredi,jeudi,Samedi}","etab_creation_date":"2021","activite_statut":"{Utilise}","activite_categorie":"Agence Togocom","toilette_type":"{WCs,Latrines a eau,autre}"}},{"type":"Feature","id":"_mview_agences_etablissements_agences.fid--4ffae836_1a09556913f_-3008","geometry":{"type":"Point","coordinates":[1.24012,6.17916]},"geometry_name":"geometry","properties":{"region_nom_bdd":"Maritime","prefecture_nom_bdd":"Golfe","commune_nom_bdd":"Golfe 2","canton_nom_bdd":"Bè-Centre","nom_localite":"Hedzranawoe","etab_nom":"Agence Togocom Hedzranawoe","etab_adresse":"Agence Togocom Hedzranawoe, Hedzranawoe","etab_jour":"{Lundi,Mardi,Mercredi,jeudi,Vendredi,Samedi}","etab_creation_date":"2019","activite_statut":"{Utilise}","activite_categorie":"Agence Togocom","toilette_type":"{WCs,Douches}"}},{"type":"Feature","id":"_mview_agences_etablissements_agences.fid--4ffae836_1a09556913f_-3007","geometry":{"type":"Point","coordinates":[1.25323382,6.17070478]},"geometry_name":"geometry","properties":{"region_nom_bdd":"Maritime","prefecture_nom_bdd":"Golfe","commune_nom_bdd":"Golfe 2","canton_nom_bdd":"Bè-Centre","nom_localite":"Aéroport ","etab_nom":"Agence Togocom Aéroport","etab_adresse":"Agence Togocom Aéroport, Aéroport ","etab_jour":"{Lundi,Mardi,Mercredi,jeudi,Vendredi,Samedi}","etab_creation_date":"Nsp ","activite_statut":"Nsp","activite_categorie":"Agence Togocom","toilette_type":"Nsp"}},{"type":"Feature","id":"_mview_agences_etablissements_agences.fid--4ffae836_1a09556913f_-3006","geometry":{"type":"Point","coordinates":[1.28438598,6.16197293]},"geometry_name":"geometry","properties":{"region_nom_bdd":"Maritime","prefecture_nom_bdd":"Golfe","commune_nom_bdd":"Golfe 1","canton_nom_bdd":"Bè-Est","nom_localite":"Ahadji Kpota","etab_nom":"Agence Togocom Ahadji Kpota","etab_adresse":"Agence Togocom Ahadji Kpota, Ahadji Kpota","etab_jour":"{Mardi,Lundi,Mercredi,jeudi,Vendredi,Samedi}","etab_creation_date":"2020","activite_statut":"{Utilise}","activite_categorie":"Agence Togocom","toilette_type":"{WCs,Douches}"}},{"type":"Feature","id":"_mview_agences_etablissements_agences.fid--4ffae836_1a09556913f_-3005","geometry":{"type":"Point","coordinates":[1.27609333,6.14345]},"geometry_name":"geometry","properties":{"region_nom_bdd":"Maritime","prefecture_nom_bdd":"Golfe","commune_nom_bdd":"Golfe 1","canton_nom_bdd":"Bè-Est","nom_localite":"Port","etab_nom":"Agence Togocom Propre Port","etab_adresse":"Agence Togocom Propre Port, Port, BP333","etab_jour":"{Lundi,Mardi,Mercredi,jeudi,Vendredi,Samedi}","etab_creation_date":"Nsp ","activite_statut":"{Utilise}","activite_categorie":"Agence Togocom","toilette_type":"{WCs,Douches}"}},{"type":"Feature","id":"_mview_agences_etablissements_agences.fid--4ffae836_1a09556913f_-3004","geometry":{"type":"Point","coordinates":[1.26172226,6.13672398]},"geometry_name":"geometry","properties":{"region_nom_bdd":"Maritime","prefecture_nom_bdd":"Golfe","commune_nom_bdd":"Golfe 1","canton_nom_bdd":"Bè-Est","nom_localite":"Mono","etab_nom":"Agence Togocom Mono","etab_adresse":"Agence Togocom Mono, Mono","etab_jour":"{Lundi,Mardi,Mercredi,jeudi,Vendredi,Samedi}","etab_creation_date":"Nsp ","activite_statut":"{Utilise}","activite_categorie":"Agence Togocom","toilette_type":"{WCs,Douches}"}},{"type":"Feature","id":"_mview_agences_etablissements_agences.fid--4ffae836_1a09556913f_-3003","geometry":{"type":"Point","coordinates":[1.28544325,6.26529343]},"geometry_name":"geometry","properties":{"region_nom_bdd":"Maritime","prefecture_nom_bdd":"Zio","commune_nom_bdd":"Zio 1","canton_nom_bdd":"Abobo","nom_localite":"Gatokope ","etab_nom":"Agence Togocom Store Djagble","etab_adresse":"Agence Togocom Store Djagble, Gatokope ","etab_jour":"Néant","etab_creation_date":"Nsp ","activite_statut":"Nsp","activite_categorie":"Agence Togocom","toilette_type":"Nsp"}},{"type":"Feature","id":"_mview_agences_etablissements_agences.fid--4ffae836_1a09556913f_-3002","geometry":{"type":"Point","coordinates":[1.186815,9.549365]},"geometry_name":"geometry","properties":{"region_nom_bdd":"Kara","prefecture_nom_bdd":"Kozah","commune_nom_bdd":"Kozah 1","canton_nom_bdd":"Commune De Kara","nom_localite":"Dongoyo","etab_nom":"Agence Togocom Dongoyo","etab_adresse":"Agence Togocom Dongoyo, Dongoyo","etab_jour":"{Mardi,Lundi,Mercredi,jeudi,Vendredi}","etab_creation_date":"1998","activite_statut":"{Utilise}","activite_categorie":"Agence Togocom","toilette_type":"Nsp"}},{"type":"Feature","id":"_mview_agences_etablissements_agences.fid--4ffae836_1a09556913f_-3001","geometry":{"type":"Point","coordinates":[0.78035,9.25998]},"geometry_name":"geometry","properties":{"region_nom_bdd":"Kara","prefecture_nom_bdd":"Bassar","commune_nom_bdd":"Bassar 1","canton_nom_bdd":"Bassar","nom_localite":"Bassar","etab_nom":"Agence Togocom Bassar","etab_adresse":"Agence Togocom Bassar, Bassar","etab_jour":"{Lundi,Mardi,Mercredi,jeudi,Vendredi,Samedi}","etab_creation_date":"1998","activite_statut":"{Utilise}","activite_categorie":"Agence Togocom","toilette_type":"{Latrines seches}"}},{"type":"Feature","id":"_mview_agences_etablissements_agences.fid--4ffae836_1a09556913f_-3000","geometry":{"type":"Point","coordinates":[1.04934,9.95916833]},"geometry_name":"geometry","properties":{"region_nom_bdd":"Kara","prefecture_nom_bdd":"Kéran","commune_nom_bdd":"Kéran 1","canton_nom_bdd":"Kantè","nom_localite":"Yotouw","etab_nom":"Franchise Togocom Kante","etab_adresse":"Franchise Togocom Kante, Yotouw","etab_jour":"{Lundi,Mardi,Mercredi,jeudi,Vendredi,Samedi,Dimanche}","etab_creation_date":"2013","activite_statut":"{Utilise}","activite_categorie":"Agence Togocom","toilette_type":"{Latrines seches}"}},{"type":"Feature","id":"_mview_agences_etablissements_agences.fid--4ffae836_1a09556913f_-2fff","geometry":{"type":"Point","coordinates":[1.05504167,9.95555667]},"geometry_name":"geometry","properties":{"region_nom_bdd":"Kara","prefecture_nom_bdd":"Kéran","commune_nom_bdd":"Kéran 1","canton_nom_bdd":"Kantè","nom_localite":"Mandouta","etab_nom":"Agence Togocom Kante","etab_adresse":"Agence Togocom Kante, Mandouta","etab_jour":"{Samedi,Vendredi,jeudi,Mercredi,Mardi,Lundi}","etab_creation_date":"Nsp","activite_statut":"{Utilise}","activite_categorie":"Agence Togocom","toilette_type":"{Latrines a eau,Douches}"}},{"type":"Feature","id":"_mview_agences_etablissements_agences.fid--4ffae836_1a09556913f_-2ffe","geometry":{"type":"Point","coordinates":[1.24398033,9.3541284]},"geometry_name":"geometry","properties":{"region_nom_bdd":"Kara","prefecture_nom_bdd":"Assoli","commune_nom_bdd":"Assoli 1","canton_nom_bdd":"Bafilo","nom_localite":"Zogo","etab_nom":"Agence Togocom Bafilo","etab_adresse":"Agence Togocom Bafilo, Zogo","etab_jour":"{Lundi,Mardi,Mercredi,jeudi,Vendredi,Samedi}","etab_creation_date":"2012","activite_statut":"{Utilise}","activite_categorie":"Agence Togocom","toilette_type":"{WCs,Douches}"}},{"type":"Feature","id":"_mview_agences_etablissements_agences.fid--4ffae836_1a09556913f_-2ffd","geometry":{"type":"Point","coordinates":[0.608555,9.68727667]},"geometry_name":"geometry","properties":{"region_nom_bdd":"Kara","prefecture_nom_bdd":"Dankpen","commune_nom_bdd":"Dankpen 1","canton_nom_bdd":"Guérin-Kouka","nom_localite":"Guerin Kouka Centre","etab_nom":"Agence Togocom Guérin Kouka","etab_adresse":"Agence Togocom Guérin Kouka, Guerin Kouka Centre","etab_jour":"{Lundi,Mardi,Samedi,Vendredi,jeudi,Mercredi}","etab_creation_date":"2012","activite_statut":"{Utilise}","activite_categorie":"Agence Togocom","toilette_type":"{Douches}"}},{"type":"Feature","id":"_mview_agences_etablissements_agences.fid--4ffae836_1a09556913f_-2ffc","geometry":{"type":"Point","coordinates":[1.20797667,6.408835]},"geometry_name":"geometry","properties":{"region_nom_bdd":"Maritime","prefecture_nom_bdd":"Zio","commune_nom_bdd":"Zio 1","canton_nom_bdd":"Tsévié","nom_localite":"Tsevie","etab_nom":"Agence Togocom Tsevie","etab_adresse":"Agence Togocom Tsevie, Tsevie","etab_jour":"{Lundi,Mardi,Mercredi,jeudi,Vendredi}","etab_creation_date":"2020","activite_statut":"{Utilise}","activite_categorie":"Agence Togocom","toilette_type":"{WCs}"}},{"type":"Feature","id":"_mview_agences_etablissements_agences.fid--4ffae836_1a09556913f_-2ffb","geometry":{"type":"Point","coordinates":[0.8122702,9.45294493]},"geometry_name":"geometry","properties":{"region_nom_bdd":"Kara","prefecture_nom_bdd":"Bassar","commune_nom_bdd":"Bassar 3","canton_nom_bdd":"Kabou","nom_localite":"Kabou Marche","etab_nom":"Agence Togocom Kabou Marche","etab_adresse":"Agence Togocom Kabou Marche, Kabou Marche","etab_jour":"{Lundi,Mardi,Mercredi,jeudi,Vendredi,Samedi}","etab_creation_date":"2019","activite_statut":"{Utilise}","activite_categorie":"Agence Togocom","toilette_type":"{Latrines a eau,Douches}"}},{"type":"Feature","id":"_mview_agences_etablissements_agences.fid--4ffae836_1a09556913f_-2ffa","geometry":{"type":"Point","coordinates":[0.92522333,6.43472]},"geometry_name":"geometry","properties":{"region_nom_bdd":"Maritime","prefecture_nom_bdd":"Avé","commune_nom_bdd":"Avé 1","canton_nom_bdd":"Kévé","nom_localite":"Quartier Latin","etab_nom":"Agence Togocom Quartier Latin","etab_adresse":"Agence Togocom Quartier Latin, Quartier Latin","etab_jour":"{Vendredi,Mardi,Lundi,jeudi,Mercredi}","etab_creation_date":"2018","activite_statut":"{Utilise}","activite_categorie":"Agence Togocom","toilette_type":"{Latrines a eau}"}},{"type":"Feature","id":"_mview_agences_etablissements_agences.fid--4ffae836_1a09556913f_-2ff9","geometry":{"type":"Point","coordinates":[1.10794167,9.76566167]},"geometry_name":"geometry","properties":{"region_nom_bdd":"Kara","prefecture_nom_bdd":"Doufelgou","commune_nom_bdd":"Doufelgou 1","canton_nom_bdd":"Niamtougou","nom_localite":"Niamtougou","etab_nom":"Agence Togocom Niamtougou","etab_adresse":"Agence Togocom Niamtougou, Niamtougou, BP220 Lomé","etab_jour":"{Lundi,Mardi,Mercredi,jeudi,Vendredi,Dimanche}","etab_creation_date":"2019","activite_statut":"{Utilise}","activite_categorie":"Agence Togocom","toilette_type":"{Douches,WCs}"}},{"type":"Feature","id":"_mview_agences_etablissements_agences.fid--4ffae836_1a09556913f_-2ff8","geometry":{"type":"Point","coordinates":[0.91428534,6.44947673]},"geometry_name":"geometry","properties":{"region_nom_bdd":"Maritime","prefecture_nom_bdd":"Avé","commune_nom_bdd":"Avé 1","canton_nom_bdd":"Assahoun","nom_localite":"Kpetoume","etab_nom":"Franchise Togocom Kpetoume","etab_adresse":"Franchise Togocom Kpetoume, Kpetoume","etab_jour":"{Lundi,Mardi,Mercredi,jeudi,Vendredi,Samedi}","etab_creation_date":"2018","activite_statut":"{Utilise}","activite_categorie":"Agence Togocom","toilette_type":"{WCs}"}},{"type":"Feature","id":"_mview_agences_etablissements_agences.fid--4ffae836_1a09556913f_-2ff7","geometry":{"type":"Point","coordinates":[1.50035684,6.58852275]},"geometry_name":"geometry","properties":{"region_nom_bdd":"Maritime","prefecture_nom_bdd":"Yoto","commune_nom_bdd":"Yoto 1","canton_nom_bdd":"Tabligbo","nom_localite":"Tabligbo","etab_nom":"Agence Togocom Tabligbo","etab_adresse":"Agence Togocom Tabligbo, Tabligbo","etab_jour":"{jeudi,Lundi,Mardi,Mercredi,Samedi,Vendredi}","etab_creation_date":"2010","activite_statut":"{Ferme}","activite_categorie":"Agence Togocom","toilette_type":"{WCs}"}},{"type":"Feature","id":"_mview_agences_etablissements_agences.fid--4ffae836_1a09556913f_-2ff6","geometry":{"type":"Point","coordinates":[1.16685667,6.675085]},"geometry_name":"geometry","properties":{"region_nom_bdd":"Maritime","prefecture_nom_bdd":"Zio","commune_nom_bdd":"Zio 3","canton_nom_bdd":"Agbélouvé","nom_localite":"Agbelouve Ville ","etab_nom":"Franchise Togocom Agbelouve Ville ","etab_adresse":"Franchise Togocom Agbelouve Ville , Agbelouve Ville ","etab_jour":"{Lundi,Mardi,Mercredi,jeudi,Vendredi,Samedi}","etab_creation_date":"Nsp","activite_statut":"{Utilise}","activite_categorie":"Agence Togocom","toilette_type":"Nsp"}},{"type":"Feature","id":"_mview_agences_etablissements_agences.fid--4ffae836_1a09556913f_-2ff5","geometry":{"type":"Point","coordinates":[1.62870333,6.49556]},"geometry_name":"geometry","properties":{"region_nom_bdd":"Maritime","prefecture_nom_bdd":"Bas-Mono","commune_nom_bdd":"Bas-Mono 1","canton_nom_bdd":"Afagnangan","nom_localite":"Awassi Onorio","etab_nom":"Agence Togocom Awassi Onorio","etab_adresse":"Agence Togocom Awassi Onorio, Awassi Onorio","etab_jour":"{Lundi,Mardi,Mercredi,jeudi,Samedi,Vendredi}","etab_creation_date":"Nsp ","activite_statut":"{Utilise}","activite_categorie":"Agence Togocom","toilette_type":"Nsp"}},{"type":"Feature","id":"_mview_agences_etablissements_agences.fid--4ffae836_1a09556913f_-2ff4","geometry":{"type":"Point","coordinates":[1.62298,6.496435]},"geometry_name":"geometry","properties":{"region_nom_bdd":"Maritime","prefecture_nom_bdd":"Bas-Mono","commune_nom_bdd":"Bas-Mono 1","canton_nom_bdd":"Afagnangan","nom_localite":"Awassi Onorio","etab_nom":"Boutique Togocom Awassi Onorio","etab_adresse":"Boutique Togocom Awassi Onorio, Awassi Onorio","etab_jour":"{Lundi,Mardi,Mercredi,jeudi,Vendredi,Samedi}","etab_creation_date":"Nsp ","activite_statut":"{Ferme}","activite_categorie":"Agence Togocom","toilette_type":"Nsp"}},{"type":"Feature","id":"_mview_agences_etablissements_agences.fid--4ffae836_1a09556913f_-2ff3","geometry":{"type":"Point","coordinates":[1.16482667,7.174345]},"geometry_name":"geometry","properties":{"region_nom_bdd":"Plateaux","prefecture_nom_bdd":"Haho","commune_nom_bdd":"Haho 4","canton_nom_bdd":"Wahala","nom_localite":"Wahala","etab_nom":"Agence Togocom Wahala","etab_adresse":"Agence Togocom Wahala, Wahala","etab_jour":"{Lundi,Mardi,Mercredi,jeudi,Vendredi,Samedi}","etab_creation_date":"2018","activite_statut":"{Utilise}","activite_categorie":"Agence Togocom","toilette_type":"Nsp"}},{"type":"Feature","id":"_mview_agences_etablissements_agences.fid--4ffae836_1a09556913f_-2ff2","geometry":{"type":"Point","coordinates":[1.60993667,7.02229167]},"geometry_name":"geometry","properties":{"region_nom_bdd":"Plateaux","prefecture_nom_bdd":"Moyen-Mono","commune_nom_bdd":"Moyen-Mono 1","canton_nom_bdd":"Tohoun","nom_localite":"Tohoun","etab_nom":"Agence Togocom Tohoun","etab_adresse":"Agence Togocom Tohoun, Tohoun","etab_jour":"{jeudi,Lundi,Mardi,Mercredi,Vendredi}","etab_creation_date":"Nsp ","activite_statut":"{Utilise}","activite_categorie":"Agence Togocom","toilette_type":"{Latrines a eau}"}},{"type":"Feature","id":"_mview_agences_etablissements_agences.fid--4ffae836_1a09556913f_-2ff1","geometry":{"type":"Point","coordinates":[1.16454,7.31563333]},"geometry_name":"geometry","properties":{"region_nom_bdd":"Plateaux","prefecture_nom_bdd":"Ogou","commune_nom_bdd":"Ogou 3","canton_nom_bdd":"Gléi","nom_localite":"Affaire Sociale ","etab_nom":"Point de Vente Togocom Glei","etab_adresse":"Point de Vente Togocom Glei, Affaire Sociale ","etab_jour":"{Lundi,Mardi,Mercredi,jeudi,Vendredi}","etab_creation_date":"Nsp","activite_statut":"{Utilise}","activite_categorie":"Agence Togocom","toilette_type":"Nsp"}},{"type":"Feature","id":"_mview_agences_etablissements_agences.fid--4ffae836_1a09556913f_-2ff0","geometry":{"type":"Point","coordinates":[0.63463876,6.90021036]},"geometry_name":"geometry","properties":{"region_nom_bdd":"Plateaux","prefecture_nom_bdd":"Kloto","commune_nom_bdd":"Kloto 1","canton_nom_bdd":"Agome-Kpalime","nom_localite":"Djodjokondji","etab_nom":"Agence Togocom Djodjokondji","etab_adresse":"Agence Togocom Djodjokondji, Djodjokondji","etab_jour":"{Mardi,Lundi,Mercredi,jeudi,Vendredi,Samedi}","etab_creation_date":"Nsp","activite_statut":"{Utilise}","activite_categorie":"Agence Togocom","toilette_type":"{Douches,WCs}"}},{"type":"Feature","id":"_mview_agences_etablissements_agences.fid--4ffae836_1a09556913f_-2fef","geometry":{"type":"Point","coordinates":[0.73126167,7.131715]},"geometry_name":"geometry","properties":{"region_nom_bdd":"Plateaux","prefecture_nom_bdd":"Kpélé","commune_nom_bdd":"Kpélé 1","canton_nom_bdd":"Kpélé-Novivé","nom_localite":"Kpele Adeta","etab_nom":"Franchise Togocom Kpele Adeta","etab_adresse":"Franchise Togocom Kpele Adeta, Kpele Adeta","etab_jour":"{Lundi,Mardi,Mercredi,jeudi,Vendredi,Samedi}","etab_creation_date":"2018","activite_statut":"{Utilise}","activite_categorie":"Agence Togocom","toilette_type":"Nsp"}},{"type":"Feature","id":"_mview_agences_etablissements_agences.fid--4ffae836_1a09556913f_-2fee","geometry":{"type":"Point","coordinates":[1.19284667,7.76495333]},"geometry_name":"geometry","properties":{"region_nom_bdd":"Plateaux","prefecture_nom_bdd":"Anié","commune_nom_bdd":"Anié 1","canton_nom_bdd":"Anié","nom_localite":"Anie","etab_nom":"Agence Tococom Anie","etab_adresse":"Agence Tococom Anie, Anie","etab_jour":"{Lundi,Mardi,Mercredi,jeudi,Vendredi,Samedi}","etab_creation_date":"2008","activite_statut":"{Utilise}","activite_categorie":"Agence Togocom","toilette_type":"{WCs}"}},{"type":"Feature","id":"_mview_agences_etablissements_agences.fid--4ffae836_1a09556913f_-2fed","geometry":{"type":"Point","coordinates":[1.17208657,6.96496424]},"geometry_name":"geometry","properties":{"region_nom_bdd":"Plateaux","prefecture_nom_bdd":"Haho","commune_nom_bdd":"Haho 3","canton_nom_bdd":"Kpédomé","nom_localite":"Tegbe","etab_nom":"Agence Togocom Notse","etab_adresse":"Agence Togocom Notse, Tegbe","etab_jour":"{Lundi,Mardi,Mercredi,jeudi,Vendredi,Samedi}","etab_creation_date":"2000","activite_statut":"{Utilise}","activite_categorie":"Agence Togocom","toilette_type":"{WCs}"}},{"type":"Feature","id":"_mview_agences_etablissements_agences.fid--4ffae836_1a09556913f_-2fec","geometry":{"type":"Point","coordinates":[0.7164316,6.84699615]},"geometry_name":"geometry","properties":{"region_nom_bdd":"Plateaux","prefecture_nom_bdd":"Agou","commune_nom_bdd":"Agou 1","canton_nom_bdd":"Agou-Tavié","nom_localite":"Gadzepe","etab_nom":"Agence Togocom Gadzepe","etab_adresse":"Agence Togocom Gadzepe, Gadzepe","etab_jour":"{Vendredi,jeudi,Mercredi,Mardi,Lundi}","etab_creation_date":"Nsp","activite_statut":"{Utilise}","activite_categorie":"Agence Togocom","toilette_type":"{WCs,Latrines seches,Douches}"}},{"type":"Feature","id":"_mview_agences_etablissements_agences.fid--4ffae836_1a09556913f_-2feb","geometry":{"type":"Point","coordinates":[0.20347833,10.86299833]},"geometry_name":"geometry","properties":{"region_nom_bdd":"Savanes","prefecture_nom_bdd":"Tône","commune_nom_bdd":"Tône 1","canton_nom_bdd":"Dapaong","nom_localite":"Napiegou ","etab_nom":"Agence Togocom Dapaong","etab_adresse":"Agence Togocom Dapaong, Napiegou ","etab_jour":"{Lundi,Mardi,Mercredi,jeudi,Vendredi,Samedi}","etab_creation_date":"1998","activite_statut":"{Utilise}","activite_categorie":"Agence Togocom","toilette_type":"{Latrines a eau}"}},{"type":"Feature","id":"_mview_agences_etablissements_agences.fid--4ffae836_1a09556913f_-2fea","geometry":{"type":"Point","coordinates":[0.03966403,11.08792629]},"geometry_name":"geometry","properties":{"region_nom_bdd":"Savanes","prefecture_nom_bdd":"Cinkassé","commune_nom_bdd":"Cinkassé 1","canton_nom_bdd":"Cinkassé","nom_localite":"Cinkasse ","etab_nom":"Agence Togocom Cinkasse","etab_adresse":"Agence Togocom Cinkasse, Cinkasse ","etab_jour":"{Lundi,Mardi,Mercredi,jeudi,Vendredi,Dimanche}","etab_creation_date":"2012","activite_statut":"{Utilise}","activite_categorie":"Agence Togocom","toilette_type":"{Latrines a eau}"}},{"type":"Feature","id":"_mview_agences_etablissements_agences.fid--4ffae836_1a09556913f_-2fe9","geometry":{"type":"Point","coordinates":[0.74686833,10.331795]},"geometry_name":"geometry","properties":{"region_nom_bdd":"Savanes","prefecture_nom_bdd":"Oti-Sud","commune_nom_bdd":"Oti-Sud 1","canton_nom_bdd":"Gando","nom_localite":"Gando ","etab_nom":"Agence Togocom Gando","etab_adresse":"Agence Togocom Gando, Gando ","etab_jour":"{Lundi,Mardi,Mercredi,jeudi,Vendredi,Samedi}","etab_creation_date":"2019","activite_statut":"{Utilise}","activite_categorie":"Agence Togocom","toilette_type":"{Latrines seches}"}},{"type":"Feature","id":"_mview_agences_etablissements_agences.fid--4ffae836_1a09556913f_-2fe8","geometry":{"type":"Point","coordinates":[0.4653617,10.35530386]},"geometry_name":"geometry","properties":{"region_nom_bdd":"Savanes","prefecture_nom_bdd":"Oti","commune_nom_bdd":"Oti 1","canton_nom_bdd":"Mango","nom_localite":"Djabou ","etab_nom":"Agence Togocom Mango","etab_adresse":"Agence Togocom Mango, Djabou ","etab_jour":"{Lundi,Mardi,Mercredi,jeudi,Vendredi,Samedi}","etab_creation_date":"2015","activite_statut":"{Utilise}","activite_categorie":"Agence Togocom","toilette_type":"{Latrines a eau}"}}],"totalFeatures":62,"numberMatched":62,"numberReturned":62,"timeStamp":"2026-09-14T01:14:43.462Z","crs":{"type":"name","properties":{"name":"urn:ogc:def:crs:EPSG::4326"}}}