{"type":"FeatureCollection","features":[{"type":"Feature","id":"_mview_datacenter_etablissements_datacenter.fid--4ffae836_1a09556913f_-3028","geometry":{"type":"Point","coordinates":[1.21151643,6.19248591]},"geometry_name":"geometry","properties":{"region_nom_bdd":"Maritime","prefecture_nom_bdd":"Golfe","commune_nom_bdd":"Golfe 3","canton_nom_bdd":"Bè-Ouest","nom_localite":"GTA","etab_nom":"Lomé Data Center (LDC)","etab_adresse":"Lome Data Center (LDC), GTA","etab_jour":"{Lundi,Mardi,Mercredi,jeudi,Vendredi,Samedi}","etab_creation_date":"2022","terrain":"Domaine public de l Etat ou des collectivites territoriales","activite_statut":"{Construit et Utilise}","toilette_type":"{WCs}"}},{"type":"Feature","id":"_mview_datacenter_etablissements_datacenter.fid--4ffae836_1a09556913f_-3027","geometry":{"type":"Point","coordinates":[1.21105003,6.12869725]},"geometry_name":"geometry","properties":{"region_nom_bdd":"Maritime","prefecture_nom_bdd":"Golfe","commune_nom_bdd":"Golfe 4","canton_nom_bdd":"Amoutivé","nom_localite":"Nyekonakpoe","etab_nom":"E-Gouv NOC","etab_adresse":"E-Gouv NOC, Nyekonakpoe","etab_jour":"{Lundi,Mardi,Mercredi,jeudi,Vendredi}","etab_creation_date":"2016","terrain":"Domaine public de l Etat ou des collectivites territoriales","activite_statut":"{Construit et Utilise}","toilette_type":"{WCs}"}},{"type":"Feature","id":"_mview_datacenter_etablissements_datacenter.fid--4ffae836_1a09556913f_-3026","geometry":{"type":"Point","coordinates":[1.19162663,6.1702987]},"geometry_name":"geometry","properties":{"region_nom_bdd":"Maritime","prefecture_nom_bdd":"Golfe","commune_nom_bdd":"Golfe 5","canton_nom_bdd":"Aflao-Gakli","nom_localite":"Avenou","etab_nom":"Cloud & Racks - Café Informatique","etab_adresse":"Cloud & Racks - Cafe Informatique, Avenou","etab_jour":"{Lundi,Mardi,Mercredi,jeudi,Vendredi}","etab_creation_date":"2021","terrain":"Prive - entreprise","activite_statut":"{Construit et Utilise}","toilette_type":"{WCs}"}}],"totalFeatures":3,"numberMatched":3,"numberReturned":3,"timeStamp":"2026-09-14T01:14:36.517Z","crs":{"type":"name","properties":{"name":"urn:ogc:def:crs:EPSG::4326"}}}